#aV2010  4 14  0  0   .00000000      96 DD+AD WGS84 FIT  NGA
## 1579 259200.00000000   900.00000000 55300  .0000000000000
+   31     1  2  3  4  5  6  7  8  9 10 11 12 13 14 15 16 17
+         18 19 20 21 22 23 24 26 27 28 29 30 31 32  0  0  0
+          0  0  0  0  0  0  0  0  0  0  0  0  0  0  0  0  0
+          0  0  0  0  0  0  0  0  0  0  0  0  0  0  0  0  0
+          0  0  0  0  0  0  0  0  0  0  0  0  0  0  0  0  0
++         0  0  0  0  0  0  0  0  0  0  0  0  0  0  0  0  0
++         0  0  0  0  0  0  0  0  0  0  0  0  0  0  0  0  0
++         0  0  0  0  0  0  0  0  0  0  0  0  0  0  0  0  0
++         0  0  0  0  0  0  0  0  0  0  0  0  0  0  0  0  0
++         0  0  0  0  0  0  0  0  0  0  0  0  0  0  0  0  0
%c cc cc ccc ccc cccc cccc cccc cccc ccccc ccccc ccccc ccccc
%c cc cc ccc ccc cccc cccc cccc cccc ccccc ccccc ccccc ccccc
%f  0.0000000  0.000000000  0.00000000000  0.000000000000000
%f  0.0000000  0.000000000  0.00000000000  0.000000000000000
%i    0    0    0    0      0      0      0      0         0
%i    0    0    0    0      0      0      0      0         0
/*      NGA, ST. LOUIS,MO.                                  
/*   EPHEMERIS COMPUTED FROM  3 DAYS OF DATA                
/* CCCCCCCCCCCCCCCCCCCCCCCCCCCCCCCCCCCCCCCCCCCCCCCCCCCCCCCCC
/* CCCCCCCCCCCCCCCCCCCCCCCCCCCCCCCCCCCCCCCCCCCCCCCCCCCCCCCCC
*  2010  4 14 17 30   .00000000                                                 
P  1  -2126.101545 -15265.988301 -21743.821910   -109.325923                    
V  1  25869.504910  -8805.302289   3811.072533      -.040425                    
P  2  14801.114714   5790.997811 -21347.973375    246.409512                    
V  2  -4810.794427  26636.549678   3443.500007       .036429                    
P  3 -23817.026849  -8234.511847   8559.539679    541.851492                    
V  3  -7525.800207  -9092.535388 -28147.302579       .051022                    
P  4   7910.907498  19828.090865 -15741.606400     59.913488                    
V  4  -6253.458752  19052.177386  21441.695141       .085883                    
P  5  24267.468731   -463.542426 -10905.783614     -1.887157                    
V  5 -12192.624019   6889.782681 -27390.680794       .000968                    
P  6 -22985.641193 -11981.454676   6294.803822    666.510738                    
V  6  -4067.647771  -7412.671072 -29694.999139      -.094098                    
P  7  -6483.080961  25568.176148  -2255.840980       .509890                    
V  7  -2017.168220  -3302.003789 -31926.751099      -.003869                    
P  8    575.187070  24197.025711  10277.957832      4.860916                    
V  8  -5281.058706  12271.882568 -29057.672902       .003322                    
P  9  14204.668882 -12684.161274  17956.440032       .881672                    
V  9  -2365.891434  23797.914205  18193.288741       .021282                    
P 10  19545.448417   6450.251765 -17156.243360    -40.300634                    
V 10 -19777.254098   8124.839775 -19345.748322      -.008868                    
P 11 -12061.266119  17199.464973  15793.134709    -56.526437                    
V 11  -4435.095334 -20752.399526  19269.756471      -.022746                    
P 12  22870.833019 -11986.140098  -5819.241712   -126.722040                    
V 12   7911.977519     25.970903  30901.257882       .044189                    
P 13  -3379.672902  15974.488779 -21080.339667    305.314595                    
V 13 -19173.016344 -18114.929088 -10742.004072      -.003217                    
P 14 -13778.250530 -21059.140633   8825.308264     33.879892                    
V 14   9134.860188   6277.175269  29573.746072       .046135                    
P 15  20539.510131   1558.737945  16848.157218   -286.651466                    
V 15  15216.821082  15070.008127 -19846.715021       .047827                    
P 16 -21196.174518  -4356.167155 -15538.365292    -61.510754                    
V 16  18254.671665  -7529.324913 -22453.004768      -.038748                    
P 17  13832.208365  20973.106986   9036.135467    144.240547                    
V 17  -9985.945433  -5757.328904  28763.155183       .026813                    
P 18   7809.995173 -17097.158153  18883.926542     61.847156                    
V 18  23060.547628  -5536.940248 -15132.728613       .024715                    
P 19 -19725.147428  -2029.447049  17849.606402    -28.077449                    
V 19 -14798.643389 -17000.870426 -18025.225537      -.025597                    
P 20 -20667.637575  14491.650875  -8314.309939     57.741149                    
V 20 -10908.280135    673.798497  28818.770733      -.006513                    
P 21   3384.800945 -25904.353969   2486.974025    -53.444549                    
V 21   4681.226043  -1955.063052 -31326.222253      -.025656                    
P 22  -5447.315879 -14883.105483  21474.250555    174.505356                    
V 22  25705.331455  -8238.100124    730.011086      -.011015                    
P 23 -12121.563694   9302.057844 -21776.047675    374.246494                    
V 23 -20619.674208 -18245.986656   3384.773424      -.012460                    
P 24   2448.670625 -26080.203421   5275.820563    279.051241                    
V 24   4306.060609  -5693.702330 -30400.916546       .031811                    
P 26   8361.472483 -11737.165620  21725.841529    -39.391984                    
V 26  20902.882363  19953.769930   3092.079682      -.046101                    
P 27  15108.425210  -9300.202187  20405.940054    143.014163                    
V 27  -2396.196174  24302.448441  13442.237735       .032533                    
P 28   2742.215672  15070.230883  22159.274919    -18.506111                    
V 28 -25853.201444   7764.630655  -2412.514706       .008162                    
P 29   4472.016939 -15698.755061 -20865.245303    112.605434                    
V 29  20220.751749  17461.801883  -8726.757258       .028561                    
P 30  14328.060300 -17035.066314 -14840.433317    233.688346                    
V 30  17689.593973  -4791.615338  23247.697730       .033218                    
P 31  -8409.758569 -18064.627304 -17262.312016    -42.183569                    
V 31   5762.775511 -21664.065268  19795.835463       .020489                    
P 32 -25541.561492   6577.807090    -41.790878     51.561674                    
V 32  -1234.642190  -2939.605371  31946.146527      -.085227                    
EOF
